[
    {
        "Altitude(m)": 569876.3399664575,
        "Argument of Periapsis(deg)": 0.019868973332140504,
        "Eccentricity": 0.0,
        "Inclination(deg)": 53.0,
        "Latitude(deg)": -48.159583328593165,
        "Longitude(deg)": 49.4458027208542,
        "Mean Anomaly(deg)": -111.54332139726715,
        "RAAN(deg)": 274.97043010558406,
        "Satellite Name": "Starlink Shell 1 1223",
        "Satellite Number": 1223,
        "Semi-Major Axis(m)": 6931778.249405717,
        "Time(s)": 570
    },
    {
        "Altitude(m)": 569985.2563158344,
        "Argument of Periapsis(deg)": 0.02021755181165174,
        "Eccentricity": 0.0,
        "Inclination(deg)": 53.0,
        "Latitude(deg)": -48.42983971933371,
        "Longitude(deg)": 50.24937282562102,
        "Mean Anomaly(deg)": -110.91649019371047,
        "RAAN(deg)": 274.96991133550654,
        "Satellite Name": "Starlink Shell 1 1223",
        "Satellite Number": 1223,
        "Semi-Major Axis(m)": 6931778.249405717,
        "Time(s)": 580
    },
    {
        "Altitude(m)": 570091.4322030086,
        "Argument of Periapsis(deg)": 0.020566130291162974,
        "Eccentricity": 0.0,
        "Inclination(deg)": 53.0,
        "Latitude(deg)": -48.69381401100387,
        "Longitude(deg)": 51.06182616198676,
        "Mean Anomaly(deg)": -110.28965899015385,
        "RAAN(deg)": 274.96939256542913,
        "Satellite Name": "Starlink Shell 1 1223",
        "Satellite Number": 1223,
        "Semi-Major Axis(m)": 6931778.249405717,
        "Time(s)": 590
    },
    {
        "Altitude(m)": 570194.8254960339,
        "Argument of Periapsis(deg)": 0.020914708770674213,
        "Eccentricity": 0.0,
        "Inclination(deg)": 53.0,
        "Latitude(deg)": -48.951383115150776,
        "Longitude(deg)": 51.883124340552826,
        "Mean Anomaly(deg)": -109.66282778659708,
        "RAAN(deg)": 274.96887379535167,
        "Satellite Name": "Starlink Shell 1 1223",
        "Satellite Number": 1223,
        "Semi-Major Axis(m)": 6931778.249405717,
        "Time(s)": 600
    },
    {
        "Altitude(m)": 570295.3951492348,
        "Argument of Periapsis(deg)": 0.021263287250185448,
        "Eccentricity": 0.0,
        "Inclination(deg)": 53.0,
        "Latitude(deg)": -49.20242389932473,
        "Longitude(deg)": 52.713216374894664,
        "Mean Anomaly(deg)": -109.03599658304039,
        "RAAN(deg)": 274.96835502527415,
        "Satellite Name": "Starlink Shell 1 1223",
        "Satellite Number": 1223,
        "Semi-Major Axis(m)": 6931778.249405717,
        "Time(s)": 610
    },
    {
        "Altitude(m)": 570393.1012210733,
        "Argument of Periapsis(deg)": 0.021611865729696686,
        "Eccentricity": 0.0,
        "Inclination(deg)": 53.0,
        "Latitude(deg)": -49.4468133794441,
        "Longitude(deg)": 53.552038681078656,
        "Mean Anomaly(deg)": -108.40916537948367,
        "RAAN(deg)": 274.9678362551967,
        "Satellite Name": "Starlink Shell 1 1223",
        "Satellite Number": 1223,
        "Semi-Major Axis(m)": 6931778.249405717,
        "Time(s)": 620
    },
    {
        "Altitude(m)": 570487.9048915858,
        "Argument of Periapsis(deg)": 0.02196044420920792,
        "Eccentricity": 0.0,
        "Inclination(deg)": 53.0,
        "Latitude(deg)": -49.68442892291324,
        "Longitude(deg)": 54.39951341719045,
        "Mean Anomaly(deg)": -107.78233417592699,
        "RAAN(deg)": 274.9673174851192,
        "Satellite Name": "Starlink Shell 1 1223",
        "Satellite Number": 1223,
        "Semi-Major Axis(m)": 6931778.249405717,
        "Time(s)": 630
    },
    {
        "Altitude(m)": 570579.7684792929,
        "Argument of Periapsis(deg)": 0.02230902268871916,
        "Eccentricity": 0.0,
        "Inclination(deg)": 53.0,
        "Latitude(deg)": -49.91514846223236,
        "Longitude(deg)": 55.25554936991097,
        "Mean Anomaly(deg)": -107.15550297237023,
        "RAAN(deg)": 274.96679871504176,
        "Satellite Name": "Starlink Shell 1 1223",
        "Satellite Number": 1223,
        "Semi-Major Axis(m)": 6931778.249405717,
        "Time(s)": 640
    },
    {
        "Altitude(m)": 570668.655457614,
        "Argument of Periapsis(deg)": 0.022657601168230398,
        "Eccentricity": 0.0,
        "Inclination(deg)": 53.0,
        "Latitude(deg)": -50.138850718750405,
        "Longitude(deg)": 56.12004035002922,
        "Mean Anomaly(deg)": -106.5286717688135,
        "RAAN(deg)": 274.9662799449643,
        "Satellite Name": "Starlink Shell 1 1223",
        "Satellite Number": 1223,
        "Semi-Major Axis(m)": 6931778.249405717,
        "Time(s)": 650
    },
    {
        "Altitude(m)": 570754.5304707618,
        "Argument of Periapsis(deg)": 0.023006179647741636,
        "Eccentricity": 0.0,
        "Inclination(deg)": 53.0,
        "Latitude(deg)": -50.35541543609839,
        "Longitude(deg)": 56.992865304259595,
        "Mean Anomaly(deg)": -105.90184056525682,
        "RAAN(deg)": 274.9657611748868,
        "Satellite Name": "Starlink Shell 1 1223",
        "Satellite Number": 1223,
        "Semi-Major Axis(m)": 6931778.249405717,
        "Time(s)": 660
    },
    {
        "Altitude(m)": 570837.3593491351,
        "Argument of Periapsis(deg)": 0.023354758127252868,
        "Eccentricity": 0.0,
        "Inclination(deg)": 53.0,
        "Latitude(deg)": -50.564723622738974,
        "Longitude(deg)": 57.87388846743815,
        "Mean Anomaly(deg)": -105.27500936170003,
        "RAAN(deg)": 274.9652424048093,
        "Satellite Name": "Starlink Shell 1 1223",
        "Satellite Number": 1223,
        "Semi-Major Axis(m)": 6931778.249405717,
        "Time(s)": 670
    },
    {
        "Altitude(m)": 570917.1091241695,
        "Argument of Periapsis(deg)": 0.023703336606764106,
        "Eccentricity": 0.0,
        "Inclination(deg)": 53.0,
        "Latitude(deg)": -50.76665780295676,
        "Longitude(deg)": 58.762958047321455,
        "Mean Anomaly(deg)": -104.64817815814331,
        "RAAN(deg)": 274.96472363473185,
        "Satellite Name": "Starlink Shell 1 1223",
        "Satellite Number": 1223,
        "Semi-Major Axis(m)": 6931778.249405717,
        "Time(s)": 680
    },
    {
        "Altitude(m)": 570993.7480426875,
        "Argument of Periapsis(deg)": 0.024051915086275345,
        "Eccentricity": 0.0,
        "Inclination(deg)": 53.0,
        "Latitude(deg)": -50.96110227549299,
        "Longitude(deg)": 59.65990647281968,
        "Mean Anomaly(deg)": -104.02134695458665,
        "RAAN(deg)": 274.9642048646544,
        "Satellite Name": "Starlink Shell 1 1223",
        "Satellite Number": 1223,
        "Semi-Major Axis(m)": 6931778.249405717,
        "Time(s)": 690
    },
    {
        "Altitude(m)": 571067.2455806787,
        "Argument of Periapsis(deg)": 0.024400493565786583,
        "Eccentricity": 0.0,
        "Inclination(deg)": 53.0,
        "Latitude(deg)": -51.14794337891878,
        "Longitude(deg)": 60.56455069780868,
        "Mean Anomaly(deg)": -103.39451575102999,
        "RAAN(deg)": 274.9636860945769,
        "Satellite Name": "Starlink Shell 1 1223",
        "Satellite Number": 1223,
        "Semi-Major Axis(m)": 6931778.249405717,
        "Time(s)": 700
    },
    {
        "Altitude(m)": 571137.5724565785,
        "Argument of Periapsis(deg)": 0.024749072045297815,
        "Eccentricity": 0.0,
        "Inclination(deg)": 53.0,
        "Latitude(deg)": -51.327069762723795,
        "Longitude(deg)": 61.47669105252729,
        "Mean Anomaly(deg)": -102.76768454747324,
        "RAAN(deg)": 274.9631673244994,
        "Satellite Name": "Starlink Shell 1 1223",
        "Satellite Number": 1223,
        "Semi-Major Axis(m)": 6931778.249405717,
        "Time(s)": 710
    },
    {
        "Altitude(m)": 571204.7006439646,
        "Argument of Periapsis(deg)": 0.025097650524809053,
        "Eccentricity": 0.0,
        "Inclination(deg)": 53.0,
        "Latitude(deg)": -51.4983726629791,
        "Longitude(deg)": 62.39611167296793,
        "Mean Anomaly(deg)": -102.14085334391645,
        "RAAN(deg)": 274.962648554422,
        "Satellite Name": "Starlink Shell 1 1223",
        "Satellite Number": 1223,
        "Semi-Major Axis(m)": 6931778.249405717,
        "Time(s)": 720
    },
    {
        "Altitude(m)": 571268.6033837282,
        "Argument of Periapsis(deg)": 0.02544622900432029,
        "Eccentricity": 0.0,
        "Inclination(deg)": 53.0,
        "Latitude(deg)": -51.66174618132684,
        "Longitude(deg)": 63.32258099976323,
        "Mean Anomaly(deg)": -101.51402214035977,
        "RAAN(deg)": 274.9621297843445,
        "Satellite Name": "Starlink Shell 1 1223",
        "Satellite Number": 1223,
        "Semi-Major Axis(m)": 6931778.249405717,
        "Time(s)": 730
    },
    {
        "Altitude(m)": 571329.255195701,
        "Argument of Periapsis(deg)": 0.02579480748383153,
        "Eccentricity": 0.0,
        "Inclination(deg)": 53.0,
        "Latitude(deg)": -51.81708756594455,
        "Longitude(deg)": 64.25585083770869,
        "Mean Anomaly(deg)": -100.88719093680317,
        "RAAN(deg)": 274.961611014267,
        "Satellite Name": "Starlink Shell 1 1223",
        "Satellite Number": 1223,
        "Semi-Major Axis(m)": 6931778.249405717,
        "Time(s)": 740
    },
    {
        "Altitude(m)": 571386.6318896861,
        "Argument of Periapsis(deg)": 0.026143385963342765,
        "Eccentricity": 0.0,
        "Inclination(deg)": 53.0,
        "Latitude(deg)": -51.964297493028724,
        "Longitude(deg)": 65.19565700521895,
        "Mean Anomaly(deg)": -100.26035973324628,
        "RAAN(deg)": 274.96109224418956,
        "Satellite Name": "Starlink Shell 1 1223",
        "Satellite Number": 1223,
        "Semi-Major Axis(m)": 6931778.249405717,
        "Time(s)": 750
    }
]